NORAD_CAT_ID,OBJECT_NAME,OBJECT_TYPE,EPOCH,MEAN_MOTION,ECCENTRICITY,INCLINATION,RA_OF_ASC_NODE,ARG_OF_PERICENTER,MEAN_ANOMALY,BSTAR,MEAN_MOTION_DOT,MEAN_MOTION_DDOT,TLE_LINE0,TLE_LINE1,TLE_LINE2,SEMIMAJOR_AXIS,PERIOD,APOGEE,PERIGEE,DECAYED
53139.0,STARLINK-4185,PAYLOAD,2024-08-12 10:11:39,15.08854219,0.0001762,53.2166,232.0914,95.2108,264.9085,8.8079e-05,1.114e-05,0.0,0 STARLINK-4185,1 53139U 22083H   24225.42475767  .00001114  00000-0  88079-4 0  9996,2 53139  53.2166 232.0914 0001762  95.2108 264.9085 15.08854219115158,6917.837,95.437,540.921,538.483,0.0
53139.0,STARLINK-4185,PAYLOAD,2024-08-12 18:08:34,15.08859221,0.0001764,53.2167,230.6042,96.299,263.8203,0.00028977,4.329e-05,0.0,0 STARLINK-4185,1 53139U 22083H   24225.75595521  .00004329  00000-0  28977-3 0  9994,2 53139  53.2167 230.6042 0001764  96.2990 263.8203 15.08859221114570,6917.822,95.436,540.907,538.466,0.0
53139.0,STARLINK-4185,PAYLOAD,2024-08-13 05:16:17,15.08837678,0.0001797,53.2151,228.5223,104.306,255.8132,2.2746e-05,7.4e-07,0.0,0 STARLINK-4185,1 53139U 22083H   24226.21964439  .00000074  00000-0  22746-4 0  9996,2 53139  53.2151 228.5223 0001797 104.3060 255.8132 15.08837678115277,6917.887,95.438,540.996,538.509,0.0
53139.0,STARLINK-4185,PAYLOAD,2024-08-13 10:02:26,15.08839359,0.0001785,53.2157,227.6312,98.7465,261.3729,2.2706e-06,-2.52e-06,0.0,0 STARLINK-4185,1 53139U 22083H   24226.41836359 -.00000252  00000-0  22706-5 0  9993,2 53139  53.2157 227.6312 0001785  98.7465 261.3729 15.08839359114679,6917.882,95.438,540.982,538.513,0.0
53139.0,STARLINK-4185,PAYLOAD,2024-08-14 06:42:27,15.08831339,0.0001593,53.2154,223.767,95.2282,264.8892,-9.9709e-05,-1.874e-05,0.0,0 STARLINK-4185,1 53139U 22083H   24227.27948918 -.00001874  00000-0 -99709-4 0  9991,2 53139  53.2154 223.7670 0001593  95.2282 264.8892 15.08831339115430,6917.907,95.438,540.874,538.67,0.0
53139.0,STARLINK-4185,PAYLOAD,2024-08-14 16:14:46,15.08831517,0.0001537,53.2158,221.9834,96.8773,263.2394,-4.23e-05,-9.61e-06,0.0,0 STARLINK-4185,1 53139U 22083H   24227.67693126 -.00000961  00000-0 -42300-4 0  9994,2 53139  53.2158 221.9834 0001537  96.8773 263.2394 15.08831517114860,6917.906,95.438,540.835,538.708,0.0
53139.0,STARLINK-4185,PAYLOAD,2024-08-15 04:57:53,15.08815215,0.0001461,53.2167,219.6106,112.6318,247.4828,-1.7239e-05,-5.62e-06,0.0,0 STARLINK-4185,1 53139U 22083H   24228.20686642 -.00000562  00000-0 -17239-4 0  9999,2 53139  53.2167 219.6106 0001461 112.6318 247.4828 15.08815215115576,6917.956,95.439,540.832,538.81,0.0
53139.0,STARLINK-4185,PAYLOAD,2024-08-15 06:33:16,15.0881163,0.0001434,53.2162,219.3096,96.3307,263.7849,-0.00010325,-1.929e-05,0.0,0 STARLINK-4185,1 53139U 22083H   24228.27310943 -.00001929  00000-0 -10325-3 0  9990,2 53139  53.2162 219.3096 0001434  96.3307 263.7849 15.08811630114954,6917.967,95.439,540.824,538.84,0.0
53139.0,STARLINK-4185,PAYLOAD,2024-08-15 16:05:35,15.08820397,0.0001346,53.216,217.522,98.9628,261.1517,-2.213e-07,-2.91e-06,0.0,0 STARLINK-4185,1 53139U 22083H   24228.67055230 -.00000291  00000-0 -22130-6 0  9990,2 53139  53.2160 217.5220 0001346  98.9628 261.1517 15.08820397115019,6917.94,95.439,540.736,538.874,0.0
53139.0,STARLINK-4185,PAYLOAD,2024-08-16 04:48:40,15.08833493,0.0001339,53.2163,215.1448,99.3054,260.809,0.00022544,3.301e-05,0.0,0 STARLINK-4185,1 53139U 22083H   24229.20046447  .00003301  00000-0  22544-3 0  9999,2 53139  53.2163 215.1448 0001339  99.3054 260.8090 15.08833493115729,6917.9,95.438,540.692,538.839,0.0
53139.0,STARLINK-4185,PAYLOAD,2024-08-16 06:24:03,15.08834274,0.0001328,53.2164,214.8473,98.5009,261.6134,0.00022978,3.37e-05,0.0,0 STARLINK-4185,1 53139U 22083H   24229.26670457  .00003370  00000-0  22978-3 0  9996,2 53139  53.2164 214.8473 0001328  98.5009 261.6134 15.08834274115101,6917.898,95.438,540.682,538.844,0.0
53139.0,STARLINK-4185,PAYLOAD,2024-08-17 07:50:13,15.08852964,0.0001185,53.2145,210.0872,97.5234,262.5893,0.00043657,6.669e-05,0.0,0 STARLINK-4185,1 53139U 22083H   24230.32653967  .00006669  00000-0  43657-3 0  9993,2 53139  53.2145 210.0872 0001185  97.5234 262.5893 15.08852964115895,6917.841,95.437,540.526,538.886,0.0
53139.0,STARLINK-4185,PAYLOAD,2024-08-18 02:54:50,15.08855637,0.0001311,53.2153,206.52,101.9154,258.1985,0.00017532,2.505e-05,0.0,0 STARLINK-4185,1 53139U 22083H   24231.12141318  .00002505  00000-0  17532-3 0  9992,2 53139  53.2153 206.5200 0001311 101.9154 258.1985 15.08855637115388,6917.833,95.437,540.605,538.791,0.0
53139.0,STARLINK-4185,PAYLOAD,2024-08-18 07:40:59,15.08853932,0.0001271,53.2155,205.6273,97.8661,262.2476,6.9771e-05,8.23e-06,0.0,0 STARLINK-4185,1 53139U 22083H   24231.32013160  .00000823  00000-0  69771-4 0  9991,2 53139  53.2155 205.6273 0001271  97.8661 262.2476 15.08853932116042,6917.838,95.437,540.582,538.824,0.0
53139.0,STARLINK-4185,PAYLOAD,2024-08-19 04:21:00,15.08847278,0.0001336,53.2173,201.7594,98.4265,261.6879,-4.352e-05,-9.81e-06,0.0,0 STARLINK-4185,1 53139U 22083H   24232.18125431 -.00000981  00000-0 -43520-4 0  9992,2 53139  53.2173 201.7594 0001336  98.4265 261.6879 15.08847278116174,6917.858,95.437,540.647,538.799,0.0
53139.0,STARLINK-4185,PAYLOAD,2024-08-20 07:22:33,15.08843968,0.0001345,53.217,196.7055,93.3022,266.8124,3.1611e-05,2.15e-06,0.0,0 STARLINK-4185,1 53139U 22083H   24233.30733092  .00000215  00000-0  31611-4 0  9991,2 53139  53.2170 196.7055 0001345  93.3022 266.8124 15.08843968116342,6917.868,95.437,540.664,538.803,0.0
53139.0,STARLINK-4185,PAYLOAD,2024-08-21 08:48:43,15.088409,0.0001386,53.2174,191.9482,93.8157,266.2994,8.8372e-05,1.119e-05,0.0,0 STARLINK-4185,1 53139U 22083H   24234.36717141  .00001119  00000-0  88372-4 0  9995,2 53139  53.2174 191.9482 0001386  93.8157 266.2994 15.08840900116506,6917.878,95.437,540.701,538.784,0.0
53139.0,STARLINK-4185,PAYLOAD,2024-08-21 23:07:12,15.08834593,0.0001472,53.2178,189.272,94.9576,265.1584,1.0115e-05,-1.27e-06,0.0,0 STARLINK-4185,1 53139U 22083H   24234.96333920 -.00000127  00000-0  10115-4 0  9999,2 53139  53.2178 189.2720 0001472  94.9576 265.1584 15.08834593116591,6917.897,95.438,540.78,538.744,0.0
